NORAD_CAT_ID,OBJECT_NAME,OBJECT_TYPE,EPOCH,MEAN_MOTION,ECCENTRICITY,INCLINATION,RA_OF_ASC_NODE,ARG_OF_PERICENTER,MEAN_ANOMALY,BSTAR,MEAN_MOTION_DOT,MEAN_MOTION_DDOT,TLE_LINE0,TLE_LINE1,TLE_LINE2,SEMIMAJOR_AXIS,PERIOD,APOGEE,PERIGEE,DECAYED
53860.0,STARLINK-4799,PAYLOAD,2022-09-23 16:00:00,15.88480855,0.0032192,53.2174,236.2085,55.4436,40.6349,-0.0041311,-0.01226701,0.00042887,0 STARLINK-4799,1 53860U 22114AU  22266.66667824 -.01226701  42887-3 -41311-2 0  9990,2 53860  53.2174 236.2085 0032192  55.4436  40.6349 15.88480855  1308,6684.678000000001,90.653,328.0630000000001,285.024,0.0
53860.0,STARLINK-4799,PAYLOAD,2022-09-24 06:00:00,15.86984388,0.0026133,53.2171,233.2604,56.8431,135.5042,-0.004721,-0.01279813,0.00045694,0 STARLINK-4799,1 53860U 22114AU  22267.25001157 -.01279813  45694-3 -47210-2 0  9992,2 53860  53.2171 233.2604 0026133  56.8431 135.5042 15.86984388  1398,6688.88,90.738,328.225,293.265,0.0
53860.0,STARLINK-4799,PAYLOAD,2022-09-24 14:00:01,15.86171057,0.0022581,53.2168,231.5768,57.1793,240.2166,-0.0053116,-0.01372068,0.00051493,0 STARLINK-4799,1 53860U 22114AU  22267.58335648 -.01372068  51493-3 -53116-2 0  9995,2 53860  53.2168 231.5768 0022581  57.1793 240.2166 15.86171057  1307,6691.166,90.785,328.141,297.922,0.0
53860.0,STARLINK-4799,PAYLOAD,2022-09-24 22:00:00,15.85273375,0.0019081,53.2176,229.8963,55.5786,345.7265,-0.0053221,-0.01159756,0.0,0 STARLINK-4799,1 53860U 22114AU  22267.91667824 -.01159756  00000-0 -53221-2 0  9995,2 53860  53.2176 229.8963 0019081  55.5786 345.7265 15.85273375  1304,6693.691999999999,90.836,328.329,302.785,0.0
53860.0,STARLINK-4799,PAYLOAD,2022-09-25 06:00:00,15.84411868,0.0015809,53.2176,228.2202,52.9922,91.2314,-0.0056263,-0.01167071,0.0,0 STARLINK-4799,1 53860U 22114AU  22268.25001157 -.01167071  00000-0 -56263-2 0  9992,2 53860  53.2176 228.2202 0015809  52.9922  91.2314 15.84411868  1555,6696.118,90.885,328.569,307.397,0.0
53860.0,STARLINK-4799,PAYLOAD,2022-09-25 14:00:01,15.83572451,0.0012097999999999,53.2174,226.5427,49.8301,196.2642,-0.0061553999999999,-0.01235618,0.0,0 STARLINK-4799,1 53860U 22114AU  22268.58334491 -.01235618  00000-0 -61554-2 0  9990,2 53860  53.2174 226.5427 0012098  49.8301 196.2642 15.83572451  1304,6698.484,90.934,328.4530000000001,312.246,0.0
53860.0,STARLINK-4799,PAYLOAD,2022-09-25 22:00:01,15.82687915,0.0007987,53.2175,224.8681,44.6778,302.3246,-0.0062751,-0.01205168,0.0,0 STARLINK-4799,1 53860U 22114AU  22268.91668981 -.01205168  00000-0 -62751-2 0  9998,2 53860  53.2175 224.8681 0007987  44.6778 302.3246 15.82687915  1659,6700.98,90.984,328.19699999999995,317.493,0.0
53860.0,STARLINK-4799,PAYLOAD,2022-09-26 10:00:00,15.81394471,0.0004706,53.217,222.3629,31.375,284.8562,-0.006762,-0.01216709,0.0,0 STARLINK-4799,1 53860U 22114AU  22269.41667824 -.01216709  00000-0 -67620-2 0  9992,2 53860  53.2170 222.3629 0004706  31.3750 284.8562 15.81394471  1733,6704.6330000000025,91.059,329.654,323.343,0.0
53860.0,STARLINK-4799,PAYLOAD,2022-09-26 14:00:01,15.80954488,0.0003816999999999,53.2174,221.5273,23.5386,161.9398,-0.0068352,-0.0120544,0.0,0 STARLINK-4799,1 53860U 22114AU  22269.58334491 -.01205440  00000-0 -68352-2 0  9994,2 53860  53.2174 221.5273 0003817  23.5386 161.9398 15.80954488  1307,6705.877,91.084,330.302,325.183,0.0
53860.0,STARLINK-4799,PAYLOAD,2022-09-26 22:00:00,15.80098437,0.0002776,53.2177,219.8595,317.1861,325.9955,-0.0072458,-0.01224719,0.0,0 STARLINK-4799,1 53860U 22114AU  22269.91667824 -.01224719  00000-0 -72458-2 0  9992,2 53860  53.2177 219.8595 0002776 317.1861 325.9955 15.80098437  1304,6708.299,91.134,332.026,328.302,0.0
53860.0,STARLINK-4799,PAYLOAD,2022-09-27 06:00:00,15.79187825,0.0004769,53.2174,218.1951,284.2415,95.6226,-0.0071276,-0.01164079,0.0,0 STARLINK-4799,1 53860U 22114AU  22270.25001157 -.01164079  00000-0 -71276-2 0  9991,2 53860  53.2174 218.1951 0004769 284.2415  95.6226 15.79187825  1863,6710.878000000002,91.186,335.9430000000001,329.542,0.0
53860.0,STARLINK-4799,PAYLOAD,2022-09-27 14:00:01,15.78404099,0.0006696,53.2172,216.5305,273.357,202.0841,-0.0081331,-0.01269566,0.0,0 STARLINK-4799,1 53860U 22114AU  22270.58334491 -.01269566  00000-0 -81331-2 0  9997,2 53860  53.2172 216.5305 0006696 273.3570 202.0841 15.78404099  1308,6713.099,91.231,339.459,330.469,0.0
53860.0,STARLINK-4799,PAYLOAD,2022-09-27 22:00:01,15.77568036,0.0005554,53.2169,214.8685,269.7707,300.2981,-0.0087467,-0.01332149,0.0,0 STARLINK-4799,1 53860U 22114AU  22270.91668981 -.01332149  00000-0 -87467-2 0  9992,2 53860  53.2169 214.8685 0005554 269.7707 300.2981 15.77568036  1979,6715.47,91.28,341.065,333.606,0.0
53860.0,STARLINK-4799,PAYLOAD,2022-09-28 06:00:00,15.7668925,9.56e-05,53.2171,213.2122,318.5274,345.0149,-0.0089831,-0.01313818,0.0,0 STARLINK-4799,1 53860U 22114AU  22271.25001157 -.01313818  00000-0 -89831-2 0  9995,2 53860  53.2171 213.2122 0000956 318.5274 345.0149 15.76689250  2025,6717.965999999999,91.331,340.473,339.1880000000001,0.0
53860.0,STARLINK-4799,PAYLOAD,2022-09-28 14:00:01,15.75814378,0.0001025,53.2173,211.5537,38.563,357.4787,-0.0093198999999999,-0.01311343,0.0,0 STARLINK-4799,1 53860U 22114AU  22271.58334491 -.01311343  00000-0 -93199-2 0  9994,2 53860  53.2173 211.5537 0001025  38.5630 357.4787 15.75814378  2071,6720.4519999999975,91.381,343.006,341.6280000000001,0.0
53860.0,STARLINK-4799,PAYLOAD,2022-09-28 22:00:00,15.74905293,0.0001356,53.2172,209.8984,60.2707,67.2398,-0.0092472,-0.0125626,0.0,0 STARLINK-4799,1 53860U 22114AU  22271.91667824 -.01256260  00000-0 -92472-2 0  9999,2 53860  53.2172 209.8984 0001356  60.2707  67.2398 15.74905293  1305,6723.038000000001,91.434,345.814,343.991,0.0
53860.0,STARLINK-4799,PAYLOAD,2022-09-29 06:00:00,15.7387305,0.0001363,53.2174,208.2481,72.4441,145.5027,-0.0056213,-0.0074458,0.0,0 STARLINK-4799,1 53860U 22114AU  22272.25001157 -.00744580  00000-0 -56213-2 0  9997,2 53860  53.2174 208.2481 0001363  72.4441 145.5027 15.73873050  2180,6725.977,91.494,348.759,346.925,0.0
53860.0,STARLINK-4799,PAYLOAD,2022-09-29 14:00:01,15.73216037,0.0001217,53.2175,206.5965,80.0307,227.3421,-0.00015328,-0.0002209,0.0,0 STARLINK-4799,1 53860U 22114AU  22272.58334491 -.00022090  00000-0 -15328-3 0  9991,2 53860  53.2175 206.5965 0001217  80.0307 227.3421 15.73216037  2232,6727.849,91.532,350.533,348.896,0.0
53860.0,STARLINK-4799,PAYLOAD,2022-09-29 22:00:00,15.73277068,0.0001121,53.2147,204.9418,77.5143,318.7923,-0.00038004,-0.00053791,0.0,0 STARLINK-4799,1 53860U 22114AU  22272.91667824 -.00053791  00000-0 -38004-3 0  9995,2 53860  53.2147 204.9418 0001121  77.5143 318.7923 15.73277068  1309,6727.675,91.529,350.295,348.786,0.0
53860.0,STARLINK-4799,PAYLOAD,2022-09-30 06:00:02,15.73238638,0.0001158,53.2147,203.2939,66.3594,59.0183,-0.00017724,-0.0002546,0.0,0 STARLINK-4799,1 53860U 22114AU  22273.25002315 -.00025460  00000-0 -17724-3 0  9999,2 53860  53.2147 203.2939 0001158  66.3594  59.0183 15.73238638  2343,6727.785,91.531,350.42900000000014,348.871,0.0
53860.0,STARLINK-4799,PAYLOAD,2022-09-30 14:00:01,15.732071,9.92e-05,53.2149,201.6423,75.3228,138.9622,-0.00044749,-0.0006297,0.0,0 STARLINK-4799,1 53860U 22114AU  22273.58334491 -.00062970  00000-0 -44749-3 0  9992,2 53860  53.2149 201.6423 0000992  75.3228 138.9622 15.73207100  1304,6727.875,91.533,350.407,349.0730000000001,0.0
53860.0,STARLINK-4799,PAYLOAD,2022-09-30 22:00:00,15.73180478,9.59e-05,53.2148,199.9931,77.4974,225.7018,0.00034378,0.00047862,0.0,0 STARLINK-4799,1 53860U 22114AU  22273.91667824  .00047862  00000-0  34378-3 0  9996,2 53860  53.2148 199.9931 0000959  77.4974 225.7018 15.73180478  1302,6727.951,91.534,350.461,349.171,0.0
53860.0,STARLINK-4799,PAYLOAD,2022-10-01 14:00:01,15.73232805,9.73e-05,53.214,196.6936,83.4283,37.6737,-0.00019916,-0.00028514,0.0,0 STARLINK-4799,1 53860U 22114AU  22274.58334491 -.00028514  00000-0 -19916-3 0  9997,2 53860  53.2140 196.6936 0000973  83.4283  37.6737 15.73232805  2557,6727.802,91.531,350.321,349.01199999999994,0.0
53860.0,STARLINK-4799,PAYLOAD,2022-10-01 22:00:00,15.73210452,0.0001071,53.2142,195.0446,84.2765,125.7731,-0.00054174,-0.00075998,0.0,0 STARLINK-4799,1 53860U 22114AU  22274.91667824 -.00075998  00000-0 -54174-3 0  9996,2 53860  53.2142 195.0446 0001071  84.2765 125.7731 15.73210452  1301,6727.865,91.533,350.451,349.01,0.0
53860.0,STARLINK-4799,PAYLOAD,2022-10-02 06:00:00,15.73128888,0.0001238,53.2141,193.3965,75.0655,223.8999,0.00029455,0.00040793,0.0,0 STARLINK-4799,1 53860U 22114AU  22275.25001157  .00040793  00000-0  29455-3 0  9992,2 53860  53.2141 193.3965 0001238  75.0655 223.8999 15.73128888  2654,6728.098000000001,91.537,350.796,349.13,0.0
53860.0,STARLINK-4799,PAYLOAD,2022-10-02 14:00:01,15.73131932,0.000127,53.2144,191.7449,89.3923,298.443,0.00079544,0.00112188,0.0,0 STARLINK-4799,1 53860U 22114AU  22275.58334491  .00112188  00000-0  79544-3 0  9990,2 53860  53.2144 191.7449 0001270  89.3923 298.4430 15.73131932  1301,6728.089,91.537,350.809,349.1,0.0
53860.0,STARLINK-4799,PAYLOAD,2022-10-02 22:00:00,15.73227318,0.0001314,53.2144,190.0961,87.72399999999998,28.9942,0.00029986,0.00041722,0.0,0 STARLINK-4799,1 53860U 22114AU  22275.91667824  .00041722  00000-0  29986-3 0  9996,2 53860  53.2144 190.0961 0001314  87.7240  28.9942 15.73227318  2764,6727.816999999999,91.532,350.566,348.798,0.0
53860.0,STARLINK-4799,PAYLOAD,2022-10-03 14:00:01,15.73225076,0.0001085999999999,53.214,186.796,96.8166,197.8997,0.00013339,0.00018161,0.0,0 STARLINK-4799,1 53860U 22114AU  22276.58334491  .00018161  00000-0  13339-3 0  9997,2 53860  53.2140 186.7960 0001086  96.8166 197.8997 15.73225076  2861,6727.824000000001,91.532,350.4190000000001,348.958,0.0
53860.0,STARLINK-4799,PAYLOAD,2022-10-03 22:00:00,15.73260569,0.0001062,53.2143,185.1475,93.9742,289.6734,-0.00022141,-0.00031656,0.0,0 STARLINK-4799,1 53860U 22114AU  22276.91667824 -.00031656  00000-0 -22141-3 0  9990,2 53860  53.2143 185.1475 0001062  93.9742 289.6734 15.73260569  1303,6727.722,91.53,350.302,348.87300000000016,0.0
